ONEWEB-0228             
1 48780U 21045P   24027.53586061 -.00000403  00000+0 -11040-2 0  9994
2 48780  87.8956  72.6873 0002018  99.3421 260.7938 13.15548111129720
